GLOBALSTAR M094         
1 39074U 13005C   25342.77760832 -.00000085  00000+0  10218-3 0  9996
2 39074  51.9978  10.5404 0000049  87.0212 273.0660 12.62265234594422
GLOBALSTAR M096         
1 39075U 13005D   25342.94904566 -.00000085  00000+0  10357-3 0  9994
2 39075  52.0088  58.6675 0000404 140.7430 219.3466 12.62269212593363
GLOBALSTAR M078         
1 39076U 13005E   25342.84389493 -.00000116  00000+0 -67448-4 0  9990
2 39076  51.9845 143.2632 0001058 152.7077 207.3845 12.62272387591973
GLOBALSTAR M095         
1 39077U 13005F   25342.79092138 -.00000113  00000+0 -52593-4 0  9994
2 39077  52.0055 140.7576 0000703 122.5113 237.5822 12.62267250591827
GLOBALSTAR M087         
1 52888U 22064A   25342.96229888 -.00000072  00000+0  17546-3 0  9998
2 52888  52.0007 281.5829 0000461  40.6274 319.4627 12.62261065167115
